{
    "links": {
        "self": "http://www.neowsapp.com/rest/v1/neo/3412890?api_key=iIulBulltgU6a56xZRHN4H3l9WmuAYTsLGpBGhQ2"
    },
    "id": "3412890",
    "neo_reference_id": "3412890",
    "name": "(2008 KA6)",
    "designation": "2008 KA6",
    "nasa_jpl_url": "http://ssd.jpl.nasa.gov/sbdb.cgi?sstr=3412890",
    "absolute_magnitude_h": 23.5,
    "estimated_diameter": {
        "kilometers": {
            "estimated_diameter_min": 0.0530340723,
            "estimated_diameter_max": 0.1185877909
        },
        "meters": {
            "estimated_diameter_min": 53.0340723319,
            "estimated_diameter_max": 118.5877908577
        },
        "miles": {
            "estimated_diameter_min": 0.0329538346,
            "estimated_diameter_max": 0.0736870142
        },
        "feet": {
            "estimated_diameter_min": 173.9963058693,
            "estimated_diameter_max": 389.0675677576
        }
    },
    "is_potentially_hazardous_asteroid": false,
    "close_approach_data": [
        {
            "close_approach_date": "1973-06-10",
            "close_approach_date_full": "1973-Jun-10 13:05",
            "epoch_date_close_approach": 108565500000,
            "relative_velocity": {
                "kilometers_per_second": "13.5659480634",
                "kilometers_per_hour": "48837.413028244",
                "miles_per_hour": "30345.6692230219"
            },
            "miss_distance": {
                "astronomical": "0.1291781651",
                "lunar": "50.2503062239",
                "kilometers": "19324778.349468337",
                "miles": "12007860.4544715706"
            },
            "orbiting_body": "Earth"
        },
        {
            "close_approach_date": "2008-06-23",
            "close_approach_date_full": "2008-Jun-23 21:08",
            "epoch_date_close_approach": 1214255280000,
            "relative_velocity": {
                "kilometers_per_second": "7.4596582449",
                "kilometers_per_hour": "26854.7696817435",
                "miles_per_hour": "16686.5095280811"
            },
            "miss_distance": {
                "astronomical": "0.1143177985",
                "lunar": "44.4696236165",
                "kilometers": "17101699.158689195",
                "miles": "10626503.099713091"
            },
            "orbiting_body": "Earth"
        }
    ],
    "orbital_data": {
        "orbit_id": "6",
        "orbit_determination_date": "2017-04-06 09:03:22",
        "first_observation_date": "2008-05-29",
        "last_observation_date": "2008-05-30",
        "data_arc_in_days": 1,
        "observations_used": 14,
        "orbit_uncertainty": "9",
        "minimum_orbit_intersection": ".0261292",
        "jupiter_tisserand_invariant": "5.269",
        "epoch_osculation": "2454616.5",
        "eccentricity": ".3372018526502205",
        "semi_major_axis": "1.189681694552182",
        "inclination": "5.992849746188411",
        "ascending_node_longitude": "234.3478638702738",
        "orbital_period": "473.9631702118253",
        "perihelion_distance": ".7885188230851321",
        "perihelion_argument": "117.2501942693863",
        "aphelion_distance": "1.590844566019231",
        "perihelion_time": "2454704.000314956750",
        "mean_anomaly": "293.538900564042",
        "mean_motion": ".7595526881109929",
        "equinox": "J2000",
        "orbit_class": {
            "orbit_class_type": "APO",
            "orbit_class_description": "Near-Earth asteroid orbits which cross the Earth’s orbit similar to that of 1862 Apollo",
            "orbit_class_range": "a (semi-major axis) > 1.0 AU; q (perihelion) < 1.017 AU"
        }
    },
    "is_sentry_object": false
}